[{"OBJECT_NAME":"ONEWEB-0351","OBJECT_ID":"2021-083AF","EPOCH":"2026-01-19T05:53:38.639040","MEAN_MOTION":13.20773165,"ECCENTRICITY":7.848e-5,"INCLINATION":87.9233,"RA_OF_ASC_NODE":304.1526,"ARG_OF_PERICENTER":72.4307,"MEAN_ANOMALY":287.6912,"EPHEMERIS_TYPE":0,"CLASSIFICATION_TYPE":"U","NORAD_CAT_ID":49215,"ELEMENT_SET_NO":999,"REV_AT_EPOCH":21711,"BSTAR":7.2445522e-5,"MEAN_MOTION_DOT":4.2e-7,"MEAN_MOTION_DDOT":0},{"OBJECT_NAME":"ONEWEB-0352","OBJECT_ID":"2021-083AG","EPOCH":"2026-01-19T04:10:36.487488","MEAN_MOTION":13.13470082,"ECCENTRICITY":0.00013613,"INCLINATION":87.8997,"RA_OF_ASC_NODE":349.8538,"ARG_OF_PERICENTER":81.8711,"MEAN_ANOMALY":278.2572,"EPHEMERIS_TYPE":0,"CLASSIFICATION_TYPE":"U","NORAD_CAT_ID":49216,"ELEMENT_SET_NO":999,"REV_AT_EPOCH":21146,"BSTAR":-0.00088243166,"MEAN_MOTION_DOT":-3.09e-6,"MEAN_MOTION_DDOT":0},{"OBJECT_NAME":"ONEWEB-0354","OBJECT_ID":"2021-083AH","EPOCH":"2026-01-19T06:30:12.791232","MEAN_MOTION":13.20772043,"ECCENTRICITY":0.0001827,"INCLINATION":87.9242,"RA_OF_ASC_NODE":304.1469,"ARG_OF_PERICENTER":85.0332,"MEAN_ANOMALY":275.101,"EPHEMERIS_TYPE":0,"CLASSIFICATION_TYPE":"U","NORAD_CAT_ID":49217,"ELEMENT_SET_NO":999,"REV_AT_EPOCH":21715,"BSTAR":0.0003956714,"MEAN_MOTION_DOT":1.74e-6,"MEAN_MOTION_DDOT":0},{"OBJECT_NAME":"ONEWEB-0355","OBJECT_ID":"2021-083AJ","EPOCH":"2026-01-19T06:41:57.856704","MEAN_MOTION":13.13470504,"ECCENTRICITY":0.00016095,"INCLINATION":87.8996,"RA_OF_ASC_NODE":349.8463,"ARG_OF_PERICENTER":88.3867,"MEAN_ANOMALY":271.7446,"EPHEMERIS_TYPE":0,"CLASSIFICATION_TYPE":"U","NORAD_CAT_ID":49218,"ELEMENT_SET_NO":999,"REV_AT_EPOCH":21135,"BSTAR":0.00089304805,"MEAN_MOTION_DOT":3.39e-6,"MEAN_MOTION_DDOT":0},{"OBJECT_NAME":"ONEWEB-0357","OBJECT_ID":"2021-083AK","EPOCH":"2026-01-19T06:25:40.433376","MEAN_MOTION":13.2077316,"ECCENTRICITY":0.00015169,"INCLINATION":87.9233,"RA_OF_ASC_NODE":304.1428,"ARG_OF_PERICENTER":75.3772,"MEAN_ANOMALY":284.7529,"EPHEMERIS_TYPE":0,"CLASSIFICATION_TYPE":"U","NORAD_CAT_ID":49219,"ELEMENT_SET_NO":999,"REV_AT_EPOCH":21715,"BSTAR":0.00032849827,"MEAN_MOTION_DOT":1.47e-6,"MEAN_MOTION_DDOT":0},{"OBJECT_NAME":"ONEWEB-0332","OBJECT_ID":"2021-090A","EPOCH":"2026-01-19T06:08:48.981408","MEAN_MOTION":13.14501709,"ECCENTRICITY":0.00016168,"INCLINATION":87.9017,"RA_OF_ASC_NODE":319.3947,"ARG_OF_PERICENTER":71.134,"MEAN_ANOMALY":288.9965,"EPHEMERIS_TYPE":0,"CLASSIFICATION_TYPE":"U","NORAD_CAT_ID":49279,"ELEMENT_SET_NO":999,"REV_AT_EPOCH":20801,"BSTAR":0.00011592195,"MEAN_MOTION_DOT":5.6e-7,"MEAN_MOTION_DDOT":0},{"OBJECT_NAME":"ONEWEB-0347","OBJECT_ID":"2021-090B","EPOCH":"2026-01-19T06:12:00.544032","MEAN_MOTION":13.20774133,"ECCENTRICITY":0.00017404,"INCLINATION":87.923,"RA_OF_ASC_NODE":304.1535,"ARG_OF_PERICENTER":65.7745,"MEAN_ANOMALY":294.357,"EPHEMERIS_TYPE":0,"CLASSIFICATION_TYPE":"U","NORAD_CAT_ID":49280,"ELEMENT_SET_NO":999,"REV_AT_EPOCH":21138,"BSTAR":6.9675036e-5,"MEAN_MOTION_DOT":4.1e-7,"MEAN_MOTION_DDOT":0},{"OBJECT_NAME":"ONEWEB-0349","OBJECT_ID":"2021-090C","EPOCH":"2026-01-19T06:57:28.723392","MEAN_MOTION":13.20771726,"ECCENTRICITY":0.00016428,"INCLINATION":87.923,"RA_OF_ASC_NODE":304.1466,"ARG_OF_PERICENTER":77.4257,"MEAN_ANOMALY":282.706,"EPHEMERIS_TYPE":0,"CLASSIFICATION_TYPE":"U","NORAD_CAT_ID":49281,"ELEMENT_SET_NO":999,"REV_AT_EPOCH":21017,"BSTAR":0.0002876459,"MEAN_MOTION_DOT":1.3e-6,"MEAN_MOTION_DDOT":0},{"OBJECT_NAME":"ONEWEB-0353","OBJECT_ID":"2021-090D","EPOCH":"2026-01-19T05:57:24.960384","MEAN_MOTION":13.14503427,"ECCENTRICITY":0.00016671,"INCLINATION":87.903,"RA_OF_ASC_NODE":319.3858,"ARG_OF_PERICENTER":68.1047,"MEAN_ANOMALY":292.0259,"EPHEMERIS_TYPE":0,"CLASSIFICATION_TYPE":"U","NORAD_CAT_ID":49282,"ELEMENT_SET_NO":999,"REV_AT_EPOCH":20801,"BSTAR":-0.0003950762,"MEAN_MOTION_DOT":-1.34e-6,"MEAN_MOTION_DDOT":0},{"OBJECT_NAME":"ONEWEB-0356","OBJECT_ID":"2021-090E","EPOCH":"2026-01-19T06:55:12.420480","MEAN_MOTION":13.20771512,"ECCENTRICITY":0.00025256,"INCLINATION":87.9232,"RA_OF_ASC_NODE":304.1406,"ARG_OF_PERICENTER":66.8054,"MEAN_ANOMALY":293.3345,"EPHEMERIS_TYPE":0,"CLASSIFICATION_TYPE":"U","NORAD_CAT_ID":49283,"ELEMENT_SET_NO":999,"REV_AT_EPOCH":21017,"BSTAR":0.00023206289,"MEAN_MOTION_DOT":1.07e-6,"MEAN_MOTION_DDOT":0},{"OBJECT_NAME":"ONEWEB-0358","OBJECT_ID":"2021-090F","EPOCH":"2026-01-19T05:49:17.926176","MEAN_MOTION":13.20772393,"ECCENTRICITY":0.00018247,"INCLINATION":87.9232,"RA_OF_ASC_NODE":304.1514,"ARG_OF_PERICENTER":78.027,"MEAN_ANOMALY":282.1068,"EPHEMERIS_TYPE":0,"CLASSIFICATION_TYPE":"U","NORAD_CAT_ID":49284,"ELEMENT_SET_NO":999,"REV_AT_EPOCH":21089,"BSTAR":-1.8317134e-5,"MEAN_MOTION_DOT":6.0e-8,"MEAN_MOTION_DDOT":0},{"OBJECT_NAME":"ONEWEB-0359","OBJECT_ID":"2021-090G","EPOCH":"2026-01-19T07:33:50.502240","MEAN_MOTION":13.20772271,"ECCENTRICITY":0.00018868,"INCLINATION":87.9231,"RA_OF_ASC_NODE":304.1349,"ARG_OF_PERICENTER":87.7132,"MEAN_ANOMALY":272.4217,"EPHEMERIS_TYPE":0,"CLASSIFICATION_TYPE":"U","NORAD_CAT_ID":49285,"ELEMENT_SET_NO":999,"REV_AT_EPOCH":21088,"BSTAR":1.157034e-6,"MEAN_MOTION_DOT":1.3e-7,"MEAN_MOTION_DDOT":0},{"OBJECT_NAME":"ONEWEB-0360","OBJECT_ID":"2021-090H","EPOCH":"2026-01-19T07:20:12.124032","MEAN_MOTION":13.20773038,"ECCENTRICITY":0.00016869,"INCLINATION":87.9231,"RA_OF_ASC_NODE":304.1434,"ARG_OF_PERICENTER":82.0356,"MEAN_ANOMALY":278.0969,"EPHEMERIS_TYPE":0,"CLASSIFICATION_TYPE":"U","NORAD_CAT_ID":49286,"ELEMENT_SET_NO":999,"REV_AT_EPOCH":21019,"BSTAR":2.5746274e-5,"MEAN_MOTION_DOT":2.3e-7,"MEAN_MOTION_DDOT":0},{"OBJECT_NAME":"ONEWEB-0361","OBJECT_ID":"2021-090J","EPOCH":"2026-01-19T06:52:56.016480","MEAN_MOTION":13.20773455,"ECCENTRICITY":0.00018669,"INCLINATION":87.923,"RA_OF_ASC_NODE":304.1449,"ARG_OF_PERICENTER":73.9904,"MEAN_ANOMALY":286.1435,"EPHEMERIS_TYPE":0,"CLASSIFICATION_TYPE":"U","NORAD_CAT_ID":49287,"ELEMENT_SET_NO":999,"REV_AT_EPOCH":21064,"BSTAR":0.00010188055,"MEAN_MOTION_DOT":5.4e-7,"MEAN_MOTION_DDOT":0},{"OBJECT_NAME":"ONEWEB-0362","OBJECT_ID":"2021-090K","EPOCH":"2026-01-19T06:33:11.863872","MEAN_MOTION":13.19726274,"ECCENTRICITY":0.00015265,"INCLINATION":87.9227,"RA_OF_ASC_NODE":334.6159,"ARG_OF_PERICENTER":84.1522,"MEAN_ANOMALY":275.9785,"EPHEMERIS_TYPE":0,"CLASSIFICATION_TYPE":"U","NORAD_CAT_ID":49288,"ELEMENT_SET_NO":999,"REV_AT_EPOCH":20727,"BSTAR":6.4925626e-5,"MEAN_MOTION_DOT":3.9e-7,"MEAN_MOTION_DDOT":0},{"OBJECT_NAME":"ONEWEB-0363","OBJECT_ID":"2021-090L","EPOCH":"2026-01-19T07:15:39.544128","MEAN_MOTION":13.20772368,"ECCENTRICITY":0.00020198,"INCLINATION":87.9233,"RA_OF_ASC_NODE":304.1419,"ARG_OF_PERICENTER":74.0405,"MEAN_ANOMALY":286.095,"EPHEMERIS_TYPE":0,"CLASSIFICATION_TYPE":"U","NORAD_CAT_ID":49289,"ELEMENT_SET_NO":999,"REV_AT_EPOCH":21065,"BSTAR":0.00014226732,"MEAN_MOTION_DOT":7.1e-7,"MEAN_MOTION_DDOT":0},{"OBJECT_NAME":"ONEWEB-0364","OBJECT_ID":"2021-090M","EPOCH":"2026-01-19T06:21:07.119936","MEAN_MOTION":13.20772066,"ECCENTRICITY":0.00018222,"INCLINATION":87.9224,"RA_OF_ASC_NODE":304.1689,"ARG_OF_PERICENTER":75.4736,"MEAN_ANOMALY":284.6599,"EPHEMERIS_TYPE":0,"CLASSIFICATION_TYPE":"U","NORAD_CAT_ID":49290,"ELEMENT_SET_NO":999,"REV_AT_EPOCH":21178,"BSTAR":0.00024714566,"MEAN_MOTION_DOT":1.13e-6,"MEAN_MOTION_DDOT":0}]
