ONEWEB-0351             
1 49215U 21083AF  26019.24558610  .00000042  00000+0  72446-4 0  9996
2 49215  87.9233 304.1526 0000784  72.4307 287.6912 13.20773165217110
ONEWEB-0352             
1 49216U 21083AG  26019.17403342 -.00000309  00000+0 -88243-3 0  9999
2 49216  87.8997 349.8538 0001361  81.8711 278.2572 13.13470082211465
ONEWEB-0354             
1 49217U 21083AH  26019.27098138  .00000174  00000+0  39567-3 0  9997
2 49217  87.9242 304.1469 0001827  85.0332 275.1010 13.20772043217154
ONEWEB-0355             
1 49218U 21083AJ  26019.27914186  .00000339  00000+0  89305-3 0  9996
2 49218  87.8996 349.8463 0001609  88.3867 271.7446 13.13470504211357
ONEWEB-0357             
1 49219U 21083AK  26019.26782909  .00000147  00000+0  32850-3 0  9992
2 49219  87.9233 304.1428 0001516  75.3772 284.7529 13.20773160217158
ONEWEB-0332             
1 49279U 21090A   26019.25612247  .00000056  00000+0  11592-3 0  9991
2 49279  87.9017 319.3947 0001616  71.1340 288.9965 13.14501709208010
ONEWEB-0347             
1 49280U 21090B   26019.25833963  .00000041  00000+0  69675-4 0  9993
2 49280  87.9230 304.1535 0001740  65.7745 294.3570 13.20774133211387
ONEWEB-0349             
1 49281U 21090C   26019.28991578  .00000130  00000+0  28765-3 0  9997
2 49281  87.9230 304.1466 0001642  77.4257 282.7060 13.20771726210176
ONEWEB-0353             
1 49282U 21090D   26019.24820556 -.00000134  00000+0 -39508-3 0  9994
2 49282  87.9030 319.3858 0001667  68.1047 292.0259 13.14503427208017
ONEWEB-0356             
1 49283U 21090E   26019.28833820  .00000107  00000+0  23206-3 0  9993
2 49283  87.9232 304.1406 0002525  66.8054 293.3345 13.20771512210179
ONEWEB-0358             
1 49284U 21090F   26019.24256859  .00000006  00000+0 -18317-4 0  9998
2 49284  87.9232 304.1514 0001824  78.0270 282.1068 13.20772393210891
ONEWEB-0359             
1 49285U 21090G   26019.31516785  .00000013  00000+0  11570-5 0  9996
2 49285  87.9231 304.1349 0001886  87.7132 272.4217 13.20772271210881
ONEWEB-0360             
1 49286U 21090H   26019.30569588  .00000023  00000+0  25746-4 0  9995
2 49286  87.9231 304.1434 0001686  82.0356 278.0969 13.20773038210193
ONEWEB-0361             
1 49287U 21090J   26019.28675945  .00000054  00000+0  10188-3 0  9995
2 49287  87.9230 304.1449 0001866  73.9904 286.1435 13.20773455210648
ONEWEB-0362             
1 49288U 21090K   26019.27305398  .00000039  00000+0  64926-4 0  9990
2 49288  87.9227 334.6159 0001526  84.1522 275.9785 13.19726274207278
ONEWEB-0363             
1 49289U 21090L   26019.30254102  .00000071  00000+0  14227-3 0  9995
2 49289  87.9233 304.1419 0002019  74.0405 286.0950 13.20772368210653
ONEWEB-0364             
1 49290U 21090M   26019.26466574  .00000113  00000+0  24715-3 0  9990
2 49290  87.9224 304.1689 0001822  75.4736 284.6599 13.20772066211780
